STARLINK-34783          
1 66337U 25253U   25336.50006943  .00073872  00000+0  17637-2 0  9990
2 66337  43.0007  44.7603 0001185 270.9097  17.4567 15.40612881  5331
STARLINK-35477          
1 66338U 25253V   25336.50006943  .00047647  00000+0  11431-2 0  9998
2 66338  43.0005  44.8511 0000662 254.3783 356.6465 15.40639376  5384
STARLINK-35443          
1 66339U 25253W   25336.50006943 -.02009422  00000+0 -43461-1 0  9999
2 66339  43.0005  44.5274 0001398 274.1341 109.8171 15.47063659  5334
STARLINK-35218          
1 66340U 25253X   25336.23932528  .00130561  00000+0  21881-2 0  9996
2 66340  43.0002  46.0659 0001723 259.1035 100.9632 15.50658934  5303
STARLINK-35522          
1 66341U 25253Y   25336.24069729  .00085041  00000+0  14366-2 0  9994
2 66341  43.0002  46.0790 0001588 262.4563  97.6117 15.50639914  5309
STARLINK-35535          
1 66342U 25253Z   25336.50006943  .00049050  00000+0  11762-2 0  9990
2 66342  43.0005  44.6073 0001245 280.9981  69.5447 15.40641570  5281
STARLINK-35467          
1 66343U 25253AA  25336.50006943  .00052908  00000+0  12676-2 0  9992
2 66343  43.0007  44.6979 0001153 272.0829  41.1303 15.40639265  5285
STARLINK-35511          
1 66344U 25253AB  25336.49389799  .00108013  00000+0  18155-2 0  9991
2 66344  43.0006  44.5324 0001213 250.7153 109.3576 15.50673828  5348
STARLINK-35440          
1 66345U 25253AC  25336.49458377  .00119257  00000+0  20059-2 0  9999
2 66345  43.0007  44.5357 0001101 267.7364  92.3371 15.50605790  5341
STARLINK-35482          
1 66346U 25253AD  25336.49424155  .00108462  00000+0  18279-2 0  9994
2 66346  43.0006  44.5340 0001830 276.3210  83.7442 15.50598080  5344
STARLINK-35438          
1 66347U 25253AE  25336.49355517  .00139273  00000+0  23230-2 0  9997
2 66347  43.0001  44.5284 0005169 271.7306  88.2962 15.50748022  5341
STARLINK-35849          
1 66348U 25254A   25336.50006943 -.01982340  00000+0 -20348-1 0  9997
2 66348  53.1585 325.8345 0001366  80.6249  88.5483 15.67457390  5278
