CCSDS_OMM_VERS = 2.0
CREATION_DATE  = 
ORIGINATOR     = 

OBJECT_NAME    = STARLINK-34783
OBJECT_ID      = 2025-253U
CENTER_NAME    = EARTH
REF_FRAME      = TEME
TIME_SYSTEM    = UTC
MEAN_ELEMENT_THEORY = SGP/SGP4

EPOCH          = 2025-12-02T12:00:05.998752
MEAN_MOTION    = 15.40612881
ECCENTRICITY   = .0001185
INCLINATION    = 43.0007
RA_OF_ASC_NODE = 44.7603
ARG_OF_PERICENTER = 270.9097
MEAN_ANOMALY   = 17.4567

EPHEMERIS_TYPE = 0
CLASSIFICATION_TYPE = U
NORAD_CAT_ID   = 66337
ELEMENT_SET_NO = 999
REV_AT_EPOCH   = 533
BSTAR          = .17637E-2
MEAN_MOTION_DOT = .73872E-3
MEAN_MOTION_DDOT = 0

CCSDS_OMM_VERS = 2.0
CREATION_DATE  = 
ORIGINATOR     = 

OBJECT_NAME    = STARLINK-35477
OBJECT_ID      = 2025-253V
CENTER_NAME    = EARTH
REF_FRAME      = TEME
TIME_SYSTEM    = UTC
MEAN_ELEMENT_THEORY = SGP/SGP4

EPOCH          = 2025-12-02T12:00:05.998752
MEAN_MOTION    = 15.40639376
ECCENTRICITY   = .0000662
INCLINATION    = 43.0005
RA_OF_ASC_NODE = 44.8511
ARG_OF_PERICENTER = 254.3783
MEAN_ANOMALY   = 356.6465

EPHEMERIS_TYPE = 0
CLASSIFICATION_TYPE = U
NORAD_CAT_ID   = 66338
ELEMENT_SET_NO = 999
REV_AT_EPOCH   = 538
BSTAR          = .11431E-2
MEAN_MOTION_DOT = .47647E-3
MEAN_MOTION_DDOT = 0

CCSDS_OMM_VERS = 2.0
CREATION_DATE  = 
ORIGINATOR     = 

OBJECT_NAME    = STARLINK-35443
OBJECT_ID      = 2025-253W
CENTER_NAME    = EARTH
REF_FRAME      = TEME
TIME_SYSTEM    = UTC
MEAN_ELEMENT_THEORY = SGP/SGP4

EPOCH          = 2025-12-02T12:00:05.998752
MEAN_MOTION    = 15.47063659
ECCENTRICITY   = .0001398
INCLINATION    = 43.0005
RA_OF_ASC_NODE = 44.5274
ARG_OF_PERICENTER = 274.1341
MEAN_ANOMALY   = 109.8171

EPHEMERIS_TYPE = 0
CLASSIFICATION_TYPE = U
NORAD_CAT_ID   = 66339
ELEMENT_SET_NO = 999
REV_AT_EPOCH   = 533
BSTAR          = -.43461E-1
MEAN_MOTION_DOT = -.2009422E-1
MEAN_MOTION_DDOT = 0

CCSDS_OMM_VERS = 2.0
CREATION_DATE  = 
ORIGINATOR     = 

OBJECT_NAME    = STARLINK-35218
OBJECT_ID      = 2025-253X
CENTER_NAME    = EARTH
REF_FRAME      = TEME
TIME_SYSTEM    = UTC
MEAN_ELEMENT_THEORY = SGP/SGP4

EPOCH          = 2025-12-02T05:44:37.704192
MEAN_MOTION    = 15.50658934
ECCENTRICITY   = .0001723
INCLINATION    = 43.0002
RA_OF_ASC_NODE = 46.0659
ARG_OF_PERICENTER = 259.1035
MEAN_ANOMALY   = 100.9632

EPHEMERIS_TYPE = 0
CLASSIFICATION_TYPE = U
NORAD_CAT_ID   = 66340
ELEMENT_SET_NO = 999
REV_AT_EPOCH   = 530
BSTAR          = .21881E-2
MEAN_MOTION_DOT = .130561E-2
MEAN_MOTION_DDOT = 0

CCSDS_OMM_VERS = 2.0
CREATION_DATE  = 
ORIGINATOR     = 

OBJECT_NAME    = STARLINK-35522
OBJECT_ID      = 2025-253Y
CENTER_NAME    = EARTH
REF_FRAME      = TEME
TIME_SYSTEM    = UTC
MEAN_ELEMENT_THEORY = SGP/SGP4

EPOCH          = 2025-12-02T05:46:36.245856
MEAN_MOTION    = 15.50639914
ECCENTRICITY   = .0001588
INCLINATION    = 43.0002
RA_OF_ASC_NODE = 46.0790
ARG_OF_PERICENTER = 262.4563
MEAN_ANOMALY   = 97.6117

EPHEMERIS_TYPE = 0
CLASSIFICATION_TYPE = U
NORAD_CAT_ID   = 66341
ELEMENT_SET_NO = 999
REV_AT_EPOCH   = 530
BSTAR          = .14366E-2
MEAN_MOTION_DOT = .85041E-3
MEAN_MOTION_DDOT = 0

CCSDS_OMM_VERS = 2.0
CREATION_DATE  = 
ORIGINATOR     = 

OBJECT_NAME    = STARLINK-35535
OBJECT_ID      = 2025-253Z
CENTER_NAME    = EARTH
REF_FRAME      = TEME
TIME_SYSTEM    = UTC
MEAN_ELEMENT_THEORY = SGP/SGP4

EPOCH          = 2025-12-02T12:00:05.998752
MEAN_MOTION    = 15.40641570
ECCENTRICITY   = .0001245
INCLINATION    = 43.0005
RA_OF_ASC_NODE = 44.6073
ARG_OF_PERICENTER = 280.9981
MEAN_ANOMALY   = 69.5447

EPHEMERIS_TYPE = 0
CLASSIFICATION_TYPE = U
NORAD_CAT_ID   = 66342
ELEMENT_SET_NO = 999
REV_AT_EPOCH   = 528
BSTAR          = .11762E-2
MEAN_MOTION_DOT = .4905E-3
MEAN_MOTION_DDOT = 0

CCSDS_OMM_VERS = 2.0
CREATION_DATE  = 
ORIGINATOR     = 

OBJECT_NAME    = STARLINK-35467
OBJECT_ID      = 2025-253AA
CENTER_NAME    = EARTH
REF_FRAME      = TEME
TIME_SYSTEM    = UTC
MEAN_ELEMENT_THEORY = SGP/SGP4

EPOCH          = 2025-12-02T12:00:05.998752
MEAN_MOTION    = 15.40639265
ECCENTRICITY   = .0001153
INCLINATION    = 43.0007
RA_OF_ASC_NODE = 44.6979
ARG_OF_PERICENTER = 272.0829
MEAN_ANOMALY   = 41.1303

EPHEMERIS_TYPE = 0
CLASSIFICATION_TYPE = U
NORAD_CAT_ID   = 66343
ELEMENT_SET_NO = 999
REV_AT_EPOCH   = 528
BSTAR          = .12676E-2
MEAN_MOTION_DOT = .52908E-3
MEAN_MOTION_DDOT = 0

CCSDS_OMM_VERS = 2.0
CREATION_DATE  = 
ORIGINATOR     = 

OBJECT_NAME    = STARLINK-35511
OBJECT_ID      = 2025-253AB
CENTER_NAME    = EARTH
REF_FRAME      = TEME
TIME_SYSTEM    = UTC
MEAN_ELEMENT_THEORY = SGP/SGP4

EPOCH          = 2025-12-02T11:51:12.786336
MEAN_MOTION    = 15.50673828
ECCENTRICITY   = .0001213
INCLINATION    = 43.0006
RA_OF_ASC_NODE = 44.5324
ARG_OF_PERICENTER = 250.7153
MEAN_ANOMALY   = 109.3576

EPHEMERIS_TYPE = 0
CLASSIFICATION_TYPE = U
NORAD_CAT_ID   = 66344
ELEMENT_SET_NO = 999
REV_AT_EPOCH   = 534
BSTAR          = .18155E-2
MEAN_MOTION_DOT = .108013E-2
MEAN_MOTION_DDOT = 0

CCSDS_OMM_VERS = 2.0
CREATION_DATE  = 
ORIGINATOR     = 

OBJECT_NAME    = STARLINK-35440
OBJECT_ID      = 2025-253AC
CENTER_NAME    = EARTH
REF_FRAME      = TEME
TIME_SYSTEM    = UTC
MEAN_ELEMENT_THEORY = SGP/SGP4

EPOCH          = 2025-12-02T11:52:12.037728
MEAN_MOTION    = 15.50605790
ECCENTRICITY   = .0001101
INCLINATION    = 43.0007
RA_OF_ASC_NODE = 44.5357
ARG_OF_PERICENTER = 267.7364
MEAN_ANOMALY   = 92.3371

EPHEMERIS_TYPE = 0
CLASSIFICATION_TYPE = U
NORAD_CAT_ID   = 66345
ELEMENT_SET_NO = 999
REV_AT_EPOCH   = 534
BSTAR          = .20059E-2
MEAN_MOTION_DOT = .119257E-2
MEAN_MOTION_DDOT = 0

CCSDS_OMM_VERS = 2.0
CREATION_DATE  = 
ORIGINATOR     = 

OBJECT_NAME    = STARLINK-35482
OBJECT_ID      = 2025-253AD
CENTER_NAME    = EARTH
REF_FRAME      = TEME
TIME_SYSTEM    = UTC
MEAN_ELEMENT_THEORY = SGP/SGP4

EPOCH          = 2025-12-02T11:51:42.469920
MEAN_MOTION    = 15.50598080
ECCENTRICITY   = .000183
INCLINATION    = 43.0006
RA_OF_ASC_NODE = 44.5340
ARG_OF_PERICENTER = 276.3210
MEAN_ANOMALY   = 83.7442

EPHEMERIS_TYPE = 0
CLASSIFICATION_TYPE = U
NORAD_CAT_ID   = 66346
ELEMENT_SET_NO = 999
REV_AT_EPOCH   = 534
BSTAR          = .18279E-2
MEAN_MOTION_DOT = .108462E-2
MEAN_MOTION_DDOT = 0

CCSDS_OMM_VERS = 2.0
CREATION_DATE  = 
ORIGINATOR     = 

OBJECT_NAME    = STARLINK-35438
OBJECT_ID      = 2025-253AE
CENTER_NAME    = EARTH
REF_FRAME      = TEME
TIME_SYSTEM    = UTC
MEAN_ELEMENT_THEORY = SGP/SGP4

EPOCH          = 2025-12-02T11:50:43.166688
MEAN_MOTION    = 15.50748022
ECCENTRICITY   = .0005169
INCLINATION    = 43.0001
RA_OF_ASC_NODE = 44.5284
ARG_OF_PERICENTER = 271.7306
MEAN_ANOMALY   = 88.2962

EPHEMERIS_TYPE = 0
CLASSIFICATION_TYPE = U
NORAD_CAT_ID   = 66347
ELEMENT_SET_NO = 999
REV_AT_EPOCH   = 534
BSTAR          = .2323E-2
MEAN_MOTION_DOT = .139273E-2
MEAN_MOTION_DDOT = 0

CCSDS_OMM_VERS = 2.0
CREATION_DATE  = 
ORIGINATOR     = 

OBJECT_NAME    = STARLINK-35849
OBJECT_ID      = 2025-254A
CENTER_NAME    = EARTH
REF_FRAME      = TEME
TIME_SYSTEM    = UTC
MEAN_ELEMENT_THEORY = SGP/SGP4

EPOCH          = 2025-12-02T12:00:05.998752
MEAN_MOTION    = 15.67457390
ECCENTRICITY   = .0001366
INCLINATION    = 53.1585
RA_OF_ASC_NODE = 325.8345
ARG_OF_PERICENTER = 80.6249
MEAN_ANOMALY   = 88.5483

EPHEMERIS_TYPE = 0
CLASSIFICATION_TYPE = U
NORAD_CAT_ID   = 66348
ELEMENT_SET_NO = 999
REV_AT_EPOCH   = 527
BSTAR          = -.20348E-1
MEAN_MOTION_DOT = -.198234E-1
MEAN_MOTION_DDOT = 0

